STARLINK-36177          
1 66932U 25286H   26193.25449580  .00011232  00000+0  34311-3 0  9990
2 66932  53.1577 138.0601 0001154  77.9960 282.1172 15.34395725 34514
STARLINK-36157          
1 66933U 25286J   26194.24836615  .00013944  00000+0  42268-3 0  9992
2 66933  53.1576 133.5951 0001257  87.8245 272.2902 15.34429189 34661
STARLINK-36153          
1 66934U 25286K   26193.99202716  .00028105  00000+0  83917-3 0  9994
2 66934  53.1584 134.8363 0000847  66.4507 293.6584 15.34424344 34627
STARLINK-36127          
1 66935U 25286L   26194.21469566  .00016132  00000+0  48733-3 0  9993
2 66935  53.1571 133.3883 0000285 136.2845 223.8180 15.34414237 34663
STARLINK-36160          
1 66936U 25286M   26194.22311853  .00013028  00000+0  39592-3 0  9994
2 66936  53.1576 133.4377 0002276  74.5259 285.5995 15.34409515 34654
STARLINK-36165          
1 66937U 25286N   26194.23783904  .00015218  00000+0  46049-3 0  9994
2 66937  53.1594 133.5344 0000553 358.9087   1.1914 15.34407587 34665
STARLINK-36155          
1 66938U 25286P   26194.22943155  .00019098  00000+0  57456-3 0  9994
2 66938  53.1586 133.4755 0002973  70.1208 290.0114 15.34418351 34660
STARLINK-36154          
1 66939U 25286Q   26194.22100733  .00019825  00000+0  59606-3 0  9999
2 66939  53.1587 133.4252 0000716 112.0761 248.0318 15.34413514 34662
STARLINK-36121          
1 66940U 25286R   26194.23364071  .00014648  00000+0  44373-3 0  9992
2 66940  53.1550 133.5040 0002638  87.5673 272.5632 15.34405674 34662
STARLINK-36088          
1 66941U 25286S   26194.85343972  .00017651  00000+0  53232-3 0  9999
2 66941  53.1556 130.2557 0001376  23.0411 337.0653 15.34398985 34766
STARLINK-36100          
1 66942U 25286T   26193.26922161  .00020911  00000+0  62824-3 0  9997
2 66942  53.1575 138.1505 0000696  69.7399 290.3679 15.34402906 34447
STARLINK-36109          
1 66943U 25286U   26194.21890124  .00022737  00000+0  68167-3 0  9991
2 66943  53.1573 133.4105 0000805 160.3748 199.7286 15.34416255 34592
STARLINK-36112          
1 66944U 25286V   26194.21049796  .00012460  00000+0  37923-3 0  9991
2 66944  53.1591 133.3570 0002418  73.0738 287.0529 15.34406583 34661
STARLINK-36110          
1 66945U 25286W   26194.24415362  .00016569  00000+0  50016-3 0  9993
2 66945  53.1556 133.5660 0002142 107.0166 253.1072 15.34417300 34668
STARLINK-36115          
1 66946U 25286X   26193.25870277  .00026784  00000+0  80064-3 0  9990
2 66946  53.1589 138.0845 0001046  63.3121 296.7988 15.34414694 34513
STARLINK-36089          
1 66947U 25286Y   26193.98992371  .00009224  00000+0  28374-3 0  9997
2 66947  53.1567 134.8215 0001590  96.6365 263.4819 15.34404900 34623
STARLINK-36116          
1 66948U 25286Z   26194.84931235  .00013933  00000+0  42304-3 0  9997
2 66948  53.1558 130.9430 0001091  92.9916 267.1212 15.34377443 34749
STARLINK-36096          
1 66949U 25286AA  26194.20628611  .00013268  00000+0  40310-3 0  9995
2 66949  53.1578 133.3310 0001202  91.9620 268.1520 15.34402485 34660
STARLINK-36111          
1 66950U 25286AB  26194.85554291  .00018319  00000+0  55230-3 0  9999
2 66950  53.1578 130.2695 0000587  52.6010 307.5046 15.34382117 34767
STARLINK-35999          
1 66951U 25286AC  26194.24203566  .00021417  00000+0  64228-3 0  9999
2 66951  53.1575 133.5560 0002208  49.0309 311.0884 15.34443965 34663
STARLINK-36122          
1 66952U 25286AD  26194.22522421  .00014668  00000+0  44427-3 0  9991
2 66952  53.1589 133.4466 0002428  81.2213 278.9064 15.34410157 34667
STARLINK-35887          
1 66959U 25288A   26193.87168968  .00010232  00000+0  38067-3 0  9998
2 66959  43.0036  36.3865 0001162 257.9155 102.1567 15.27593309 34438
STARLINK-35879          
1 66960U 25288B   26193.95121280  .00011775  00000+0  43667-3 0  9990
2 66960  43.0038  36.1236 0001464 270.6242  89.4442 15.27585731 34446
STARLINK-35761          
1 66961U 25288C   26193.98193915  .00013224  00000+0  48948-3 0  9996
2 66961  43.0011  35.4946 0003494  48.9136 311.2017 15.27559031 34450
STARLINK-35874          
1 66962U 25288D   26193.97819251  .00018276  00000+0  67204-3 0  9992
2 66962  43.0025  36.3229 0002011 266.7091  93.3530 15.27577438 34442
STARLINK-36133          
1 66963U 25288E   26194.54097396  .00012134  00000+0  44957-3 0  9992
2 66963  43.0014  32.8052 0001124 257.7685 102.3041 15.27591533 34539
STARLINK-36104          
1 66964U 25288F   26193.90381372  .00012959  00000+0  47938-3 0  9999
2 66964  43.0033  36.6244 0001303 272.8261  87.2441 15.27595337 34433
STARLINK-36067          
1 66965U 25288G   26193.92818341 -.00013511  00000+0 -47717-3 0  9995
2 66965  42.9336  36.0129 0024583  54.4941 305.8198 15.27603675 34442
STARLINK-36139          
1 66966U 25288H   26193.99474850  .00012051  00000+0  44660-3 0  9996
2 66966  43.0030  35.5854 0001690 265.8246  94.2413 15.27589655 34456
STARLINK-36136          
1 66967U 25288J   26193.93965433  .00016977  00000+0  62445-3 0  9995
2 66967  43.0026  36.0338 0001194 282.4271  77.6447 15.27610725 34441
